[{"OBJECT_NAME":"STARLINK-32790","OBJECT_ID":"2025-034V","EPOCH":"2025-11-19T23:11:20.885280","MEAN_MOTION":15.30202647,"ECCENTRICITY":0.00013751,"INCLINATION":53.1615,"RA_OF_ASC_NODE":48.0659,"ARG_OF_PERICENTER":86.3123,"MEAN_ANOMALY":273.8035,"EPHEMERIS_TYPE":0,"CLASSIFICATION_TYPE":"U","NORAD_CAT_ID":63048,"ELEMENT_SET_NO":999,"REV_AT_EPOCH":4228,"BSTAR":0.00081619359,"MEAN_MOTION_DOT":0.00023894,"MEAN_MOTION_DDOT":0},{"OBJECT_NAME":"STARLINK-32829","OBJECT_ID":"2025-034W","EPOCH":"2025-11-19T23:27:20.796192","MEAN_MOTION":15.30204531,"ECCENTRICITY":0.00022824,"INCLINATION":53.1587,"RA_OF_ASC_NODE":60.914,"ARG_OF_PERICENTER":76.9195,"MEAN_ANOMALY":283.206,"EPHEMERIS_TYPE":0,"CLASSIFICATION_TYPE":"U","NORAD_CAT_ID":63049,"ELEMENT_SET_NO":999,"REV_AT_EPOCH":4210,"BSTAR":0.0010060079,"MEAN_MOTION_DOT":0.00029559,"MEAN_MOTION_DDOT":0},{"OBJECT_NAME":"STARLINK-32816","OBJECT_ID":"2025-034X","EPOCH":"2025-11-19T16:40:43.885632","MEAN_MOTION":15.30195286,"ECCENTRICITY":0.00013286,"INCLINATION":53.1598,"RA_OF_ASC_NODE":61.9945,"ARG_OF_PERICENTER":89.876,"MEAN_ANOMALY":270.2393,"EPHEMERIS_TYPE":0,"CLASSIFICATION_TYPE":"U","NORAD_CAT_ID":63050,"ELEMENT_SET_NO":999,"REV_AT_EPOCH":4206,"BSTAR":0.00069254328,"MEAN_MOTION_DOT":0.00020205,"MEAN_MOTION_DDOT":0},{"OBJECT_NAME":"STARLINK-32835","OBJECT_ID":"2025-034Y","EPOCH":"2025-11-19T13:43:15.896064","MEAN_MOTION":15.30209573,"ECCENTRICITY":7.83e-5,"INCLINATION":53.1594,"RA_OF_ASC_NODE":62.6521,"ARG_OF_PERICENTER":83.4789,"MEAN_ANOMALY":276.6301,"EPHEMERIS_TYPE":0,"CLASSIFICATION_TYPE":"U","NORAD_CAT_ID":63051,"ELEMENT_SET_NO":999,"REV_AT_EPOCH":4204,"BSTAR":0.00082595,"MEAN_MOTION_DOT":0.0002419,"MEAN_MOTION_DDOT":0},{"OBJECT_NAME":"STARLINK-11550 [DTC]","OBJECT_ID":"2025-035A","EPOCH":"2025-11-20T06:22:20.523648","MEAN_MOTION":15.709262,"ECCENTRICITY":0.00010003,"INCLINATION":42.9997,"RA_OF_ASC_NODE":314.7071,"ARG_OF_PERICENTER":175.4845,"MEAN_ANOMALY":184.6032,"EPHEMERIS_TYPE":0,"CLASSIFICATION_TYPE":"U","NORAD_CAT_ID":63052,"ELEMENT_SET_NO":999,"REV_AT_EPOCH":4401,"BSTAR":0.0025966381,"MEAN_MOTION_DOT":0.00348353,"MEAN_MOTION_DDOT":0},{"OBJECT_NAME":"STARLINK-11563 [DTC]","OBJECT_ID":"2025-035B","EPOCH":"2025-11-20T06:29:59.533152","MEAN_MOTION":15.7089193,"ECCENTRICITY":0.00019523,"INCLINATION":42.9999,"RA_OF_ASC_NODE":314.757,"ARG_OF_PERICENTER":293.6619,"MEAN_ANOMALY":66.4043,"EPHEMERIS_TYPE":0,"CLASSIFICATION_TYPE":"U","NORAD_CAT_ID":63053,"ELEMENT_SET_NO":999,"REV_AT_EPOCH":4390,"BSTAR":0.00099634821,"MEAN_MOTION_DOT":0.00129695,"MEAN_MOTION_DDOT":0},{"OBJECT_NAME":"STARLINK-11347 [DTC]","OBJECT_ID":"2025-035C","EPOCH":"2025-11-20T02:41:11.068224","MEAN_MOTION":15.70860156,"ECCENTRICITY":0.00012568,"INCLINATION":42.9998,"RA_OF_ASC_NODE":316.1542,"ARG_OF_PERICENTER":275.8618,"MEAN_ANOMALY":84.2106,"EPHEMERIS_TYPE":0,"CLASSIFICATION_TYPE":"U","NORAD_CAT_ID":63054,"ELEMENT_SET_NO":999,"REV_AT_EPOCH":4398,"BSTAR":0.0021422127,"MEAN_MOTION_DOT":0.0028428,"MEAN_MOTION_DDOT":0},{"OBJECT_NAME":"STARLINK-11558 [DTC]","OBJECT_ID":"2025-035D","EPOCH":"2025-11-20T05:59:24.512064","MEAN_MOTION":15.70889939,"ECCENTRICITY":0.00017191,"INCLINATION":42.9994,"RA_OF_ASC_NODE":314.5787,"ARG_OF_PERICENTER":280.3943,"MEAN_ANOMALY":79.6731,"EPHEMERIS_TYPE":0,"CLASSIFICATION_TYPE":"U","NORAD_CAT_ID":63055,"ELEMENT_SET_NO":999,"REV_AT_EPOCH":4390,"BSTAR":0.000685567,"MEAN_MOTION_DOT":0.0008865,"MEAN_MOTION_DDOT":0},{"OBJECT_NAME":"STARLINK-11392 [DTC]","OBJECT_ID":"2025-035E","EPOCH":"2025-11-20T02:25:53.567616","MEAN_MOTION":15.70851052,"ECCENTRICITY":0.00015463,"INCLINATION":43.0001,"RA_OF_ASC_NODE":316.0687,"ARG_OF_PERICENTER":279.4218,"MEAN_ANOMALY":80.6475,"EPHEMERIS_TYPE":0,"CLASSIFICATION_TYPE":"U","NORAD_CAT_ID":63056,"ELEMENT_SET_NO":999,"REV_AT_EPOCH":4398,"BSTAR":0.0018430332,"MEAN_MOTION_DOT":0.002432,"MEAN_MOTION_DDOT":0},{"OBJECT_NAME":"STARLINK-11406 [DTC]","OBJECT_ID":"2025-035F","EPOCH":"2025-11-19T16:53:35.971584","MEAN_MOTION":15.70932246,"ECCENTRICITY":0.00018308,"INCLINATION":42.9984,"RA_OF_ASC_NODE":318.2385,"ARG_OF_PERICENTER":279.9308,"MEAN_ANOMALY":80.1353,"EPHEMERIS_TYPE":0,"CLASSIFICATION_TYPE":"U","NORAD_CAT_ID":63057,"ELEMENT_SET_NO":999,"REV_AT_EPOCH":4380,"BSTAR":0.0017407246,"MEAN_MOTION_DOT":0.00230094,"MEAN_MOTION_DDOT":0},{"OBJECT_NAME":"STARLINK-11418 [DTC]","OBJECT_ID":"2025-035G","EPOCH":"2025-11-20T02:48:49.956768","MEAN_MOTION":15.71060642,"ECCENTRICITY":0.00032065,"INCLINATION":42.999,"RA_OF_ASC_NODE":316.196,"ARG_OF_PERICENTER":295.6627,"MEAN_ANOMALY":64.391,"EPHEMERIS_TYPE":0,"CLASSIFICATION_TYPE":"U","NORAD_CAT_ID":63058,"ELEMENT_SET_NO":999,"REV_AT_EPOCH":4386,"BSTAR":0.002166078,"MEAN_MOTION_DOT":0.00290107,"MEAN_MOTION_DDOT":0},{"OBJECT_NAME":"STARLINK-11509 [DTC]","OBJECT_ID":"2025-035H","EPOCH":"2025-11-20T01:01:58.433088","MEAN_MOTION":15.70873198,"ECCENTRICITY":0.00020552,"INCLINATION":42.9979,"RA_OF_ASC_NODE":316.4869,"ARG_OF_PERICENTER":179.2361,"MEAN_ANOMALY":180.851,"EPHEMERIS_TYPE":0,"CLASSIFICATION_TYPE":"U","NORAD_CAT_ID":63059,"ELEMENT_SET_NO":999,"REV_AT_EPOCH":4385,"BSTAR":0.0018476407,"MEAN_MOTION_DOT":0.00244065,"MEAN_MOTION_DDOT":0},{"OBJECT_NAME":"STARLINK-11403 [DTC]","OBJECT_ID":"2025-035J","EPOCH":"2025-11-20T00:46:40.992096","MEAN_MOTION":15.7111691,"ECCENTRICITY":0.00024423,"INCLINATION":42.9995,"RA_OF_ASC_NODE":316.4055,"ARG_OF_PERICENTER":183.5775,"MEAN_ANOMALY":176.5076,"EPHEMERIS_TYPE":0,"CLASSIFICATION_TYPE":"U","NORAD_CAT_ID":63060,"ELEMENT_SET_NO":999,"REV_AT_EPOCH":4397,"BSTAR":0.0029227206,"MEAN_MOTION_DOT":0.0039768,"MEAN_MOTION_DDOT":0},{"OBJECT_NAME":"STARLINK-11409 [DTC]","OBJECT_ID":"2025-035K","EPOCH":"2025-11-20T00:55:38.507232","MEAN_MOTION":15.70978667,"ECCENTRICITY":0.00016431,"INCLINATION":42.9984,"RA_OF_ASC_NODE":316.4543,"ARG_OF_PERICENTER":212.7467,"MEAN_ANOMALY":147.3299,"EPHEMERIS_TYPE":0,"CLASSIFICATION_TYPE":"U","NORAD_CAT_ID":63061,"ELEMENT_SET_NO":999,"REV_AT_EPOCH":4397,"BSTAR":0.0020005268,"MEAN_MOTION_DOT":0.00266184,"MEAN_MOTION_DDOT":0},{"OBJECT_NAME":"STARLINK-11412 [DTC]","OBJECT_ID":"2025-035L","EPOCH":"2025-11-20T06:45:16.682976","MEAN_MOTION":15.70925665,"ECCENTRICITY":9.99e-5,"INCLINATION":42.9991,"RA_OF_ASC_NODE":314.8277,"ARG_OF_PERICENTER":170.4023,"MEAN_ANOMALY":189.6864,"EPHEMERIS_TYPE":0,"CLASSIFICATION_TYPE":"U","NORAD_CAT_ID":63062,"ELEMENT_SET_NO":999,"REV_AT_EPOCH":4401,"BSTAR":0.0025321989,"MEAN_MOTION_DOT":0.00339315,"MEAN_MOTION_DDOT":0},{"OBJECT_NAME":"STARLINK-11399 [DTC]","OBJECT_ID":"2025-035M","EPOCH":"2025-11-20T06:14:41.085600","MEAN_MOTION":15.70974256,"ECCENTRICITY":0.00023313,"INCLINATION":43.0004,"RA_OF_ASC_NODE":314.6556,"ARG_OF_PERICENTER":276.13,"MEAN_ANOMALY":83.9302,"EPHEMERIS_TYPE":0,"CLASSIFICATION_TYPE":"U","NORAD_CAT_ID":63063,"ELEMENT_SET_NO":999,"REV_AT_EPOCH":4401,"BSTAR":0.0023054325,"MEAN_MOTION_DOT":0.00308346,"MEAN_MOTION_DDOT":0},{"OBJECT_NAME":"STARLINK-11408 [DTC]","OBJECT_ID":"2025-035N","EPOCH":"2025-11-20T06:07:03.041184","MEAN_MOTION":15.70922686,"ECCENTRICITY":5.764e-5,"INCLINATION":42.9991,"RA_OF_ASC_NODE":314.6125,"ARG_OF_PERICENTER":233.927,"MEAN_ANOMALY":126.1544,"EPHEMERIS_TYPE":0,"CLASSIFICATION_TYPE":"U","NORAD_CAT_ID":63064,"ELEMENT_SET_NO":999,"REV_AT_EPOCH":4401,"BSTAR":0.002412739,"MEAN_MOTION_DOT":0.00322595,"MEAN_MOTION_DDOT":0},{"OBJECT_NAME":"STARLINK-33635","OBJECT_ID":"2025-035P","EPOCH":"2025-11-20T06:08:51.720288","MEAN_MOTION":15.27604023,"ECCENTRICITY":1.745e-5,"INCLINATION":42.9974,"RA_OF_ASC_NODE":45.0783,"ARG_OF_PERICENTER":188.6536,"MEAN_ANOMALY":171.4313,"EPHEMERIS_TYPE":0,"CLASSIFICATION_TYPE":"U","NORAD_CAT_ID":63065,"ELEMENT_SET_NO":999,"REV_AT_EPOCH":4299,"BSTAR":0.0012493684,"MEAN_MOTION_DOT":0.00034303,"MEAN_MOTION_DDOT":0},{"OBJECT_NAME":"STARLINK-33622","OBJECT_ID":"2025-035Q","EPOCH":"2025-11-18T16:03:12.876192","MEAN_MOTION":15.27597293,"ECCENTRICITY":7.032e-5,"INCLINATION":43.0015,"RA_OF_ASC_NODE":53.7936,"ARG_OF_PERICENTER":6.9298,"MEAN_ANOMALY":353.1564,"EPHEMERIS_TYPE":0,"CLASSIFICATION_TYPE":"U","NORAD_CAT_ID":63066,"ELEMENT_SET_NO":999,"REV_AT_EPOCH":4275,"BSTAR":0.0013320119,"MEAN_MOTION_DOT":0.00036593,"MEAN_MOTION_DDOT":0},{"OBJECT_NAME":"STARLINK-33628","OBJECT_ID":"2025-035R","EPOCH":"2025-11-19T14:53:11.835168","MEAN_MOTION":15.27612921,"ECCENTRICITY":0.0001315,"INCLINATION":43.0041,"RA_OF_ASC_NODE":48.9005,"ARG_OF_PERICENTER":272.913,"MEAN_ANOMALY":87.1571,"EPHEMERIS_TYPE":0,"CLASSIFICATION_TYPE":"U","NORAD_CAT_ID":63067,"ELEMENT_SET_NO":999,"REV_AT_EPOCH":4289,"BSTAR":0.00099284,"MEAN_MOTION_DOT":0.00027187,"MEAN_MOTION_DDOT":0},{"OBJECT_NAME":"STARLINK-33627","OBJECT_ID":"2025-035S","EPOCH":"2025-11-19T22:32:52.418112","MEAN_MOTION":15.2760204,"ECCENTRICITY":0.00012618,"INCLINATION":43.0055,"RA_OF_ASC_NODE":46.9945,"ARG_OF_PERICENTER":304.8641,"MEAN_ANOMALY":55.2092,"EPHEMERIS_TYPE":0,"CLASSIFICATION_TYPE":"U","NORAD_CAT_ID":63068,"ELEMENT_SET_NO":999,"REV_AT_EPOCH":4293,"BSTAR":0.0012336068,"MEAN_MOTION_DOT":0.00033863,"MEAN_MOTION_DDOT":0},{"OBJECT_NAME":"STARLINK-33620","OBJECT_ID":"2025-035T","EPOCH":"2025-11-19T22:27:19.220832","MEAN_MOTION":15.27609563,"ECCENTRICITY":0.00016005,"INCLINATION":43.0032,"RA_OF_ASC_NODE":46.9673,"ARG_OF_PERICENTER":287.2661,"MEAN_ANOMALY":72.8016,"EPHEMERIS_TYPE":0,"CLASSIFICATION_TYPE":"U","NORAD_CAT_ID":63069,"ELEMENT_SET_NO":999,"REV_AT_EPOCH":4293,"BSTAR":0.0013501143,"MEAN_MOTION_DOT":0.00037111,"MEAN_MOTION_DDOT":0},{"OBJECT_NAME":"STARLINK-33604","OBJECT_ID":"2025-035U","EPOCH":"2025-11-19T23:04:20.214048","MEAN_MOTION":15.27597715,"ECCENTRICITY":5.046e-5,"INCLINATION":43.0003,"RA_OF_ASC_NODE":47.1659,"ARG_OF_PERICENTER":293.3319,"MEAN_ANOMALY":66.748,"EPHEMERIS_TYPE":0,"CLASSIFICATION_TYPE":"U","NORAD_CAT_ID":63070,"ELEMENT_SET_NO":999,"REV_AT_EPOCH":4293,"BSTAR":0.0010300806,"MEAN_MOTION_DOT":0.00028207,"MEAN_MOTION_DDOT":0}]
